{"version": 0.6, "generator": "Overpass API 0.7.57.2 48842a1b", "osm3s": {"timestamp_osm_base": "2022-05-31T18:58:39Z", "copyright": "The data included in this document is from www.openstreetmap.org. The data is made available under ODbL."}, "elements": [{"type": "node", "id": 358057300, "lat": 30.2839759, "lon": -97.7307906}, {"type": "node", "id": 358057302, "lat": 30.283836, "lon": -97.730165}, {"type": "node", "id": 358057304, "lat": 30.2841558, "lon": -97.7300692}, {"type": "node", "id": 358057306, "lat": 30.2842957, "lon": -97.7306947}, {"type": "node", "id": 2446138685, "lat": 30.2773942, "lon": -97.7397905}, {"type": "node", "id": 2446138686, "lat": 30.2771935, "lon": -97.7398652}, {"type": "node", "id": 2446138687, "lat": 30.2771356, "lon": -97.7396567}, {"type": "node", "id": 2446138688, "lat": 30.2773363, "lon": -97.7395819}, {"type": "node", "id": 3354671617, "lat": 30.2670676, "lon": -97.7351005}, {"type": "node", "id": 3354671618, "lat": 30.2671613, "lon": -97.734989}, {"type": "node", "id": 3354671619, "lat": 30.2671642, "lon": -97.7354469}, {"type": "node", "id": 3354671620, "lat": 30.2671806, "lon": -97.7350583}, {"type": "node", "id": 3354671622, "lat": 30.2672973, "lon": -97.7353719}, {"type": "node", "id": 3354671623, "lat": 30.2673037, "lon": -97.7353948}, {"type": "node", "id": 3354671624, "lat": 30.2673044, "lon": -97.7348345}, {"type": "node", "id": 3354671627, "lat": 30.2673952, "lon": -97.7346293}, {"type": "node", "id": 3354671629, "lat": 30.267409, "lon": -97.7348964}, {"type": "node", "id": 3354671637, "lat": 30.2675458, "lon": -97.7346325}, {"type": "node", "id": 3354671638, "lat": 30.2675774, "lon": -97.7345611}, {"type": "node", "id": 3354671642, "lat": 30.267693, "lon": -97.7349702}, {"type": "node", "id": 3354671644, "lat": 30.2676949, "lon": -97.7349768}, {"type": "node", "id": 3354671645, "lat": 30.2677489, "lon": -97.7347358}, {"type": "node", "id": 3354671646, "lat": 30.2677309, "lon": -97.7356617}, {"type": "node", "id": 3354671647, "lat": 30.2677345, "lon": -97.7351188}, {"type": "node", "id": 3354671649, "lat": 30.2677775, "lon": -97.7348314}, {"type": "node", "id": 3354671650, "lat": 30.2677616, "lon": -97.7351961}, {"type": "node", "id": 3354671652, "lat": 30.267776, "lon": -97.7350249}, {"type": "node", "id": 3354671653, "lat": 30.2677906, "lon": -97.7358755}, {"type": "node", "id": 3354671660, "lat": 30.2679812, "lon": -97.7355681}, {"type": "node", "id": 3354671663, "lat": 30.2680408, "lon": -97.7357819}, {"type": "node", "id": 3825348872, "lat": 30.258698, "lon": -97.7004028}, {"type": "node", "id": 3825349166, "lat": 30.2588828, "lon": -97.7007843}, {"type": "node", "id": 3825349241, "lat": 30.2590376, "lon": -97.700127}, {"type": "node", "id": 3825349242, "lat": 30.2591093, "lon": -97.7000835}, {"type": "node", "id": 3825349244, "lat": 30.2590593, "lon": -97.7001715}, {"type": "node", "id": 3825349261, "lat": 30.2591004, "lon": -97.7000672}, {"type": "node", "id": 3825349263, "lat": 30.2591106, "lon": -97.700022}, {"type": "node", "id": 3825349266, "lat": 30.2591216, "lon": -97.7000151}, {"type": "node", "id": 3825349272, "lat": 30.2591156, "lon": -97.7000012}, {"type": "node", "id": 3825349281, "lat": 30.2591453, "lon": -97.6999826}, {"type": "node", "id": 3825349322, "lat": 30.2591961, "lon": -97.7000888}, {"type": "node", "id": 3825349330, "lat": 30.2592276, "lon": -97.6999457}, {"type": "node", "id": 3825349341, "lat": 30.2592698, "lon": -97.7000391}, {"type": "node", "id": 3825349484, "lat": 30.2594374, "lon": -97.7003758}, {"type": "node", "id": 3825349498, "lat": 30.2594568, "lon": -97.7004153}, {"type": "node", "id": 3825349545, "lat": 30.2595752, "lon": -97.6997252}, {"type": "node", "id": 3825349746, "lat": 30.2597575, "lon": -97.7001242}, {"type": "node", "id": 3825349751, "lat": 30.2597678, "lon": -97.7001187}, {"type": "node", "id": 3855785418, "lat": 30.275505, "lon": -97.788652}, {"type": "node", "id": 3855785451, "lat": 30.275573, "lon": -97.788412}, {"type": "node", "id": 3855785455, "lat": 30.275576, "lon": -97.788783}, {"type": "node", "id": 3855785471, "lat": 30.275614, "lon": -97.788494}, {"type": "node", "id": 3855785472, "lat": 30.275616, "lon": -97.788492}, {"type": "node", "id": 3855785487, "lat": 30.275645, "lon": -97.788551}, {"type": "node", "id": 3855785492, "lat": 30.275651, "lon": -97.788357}, {"type": "node", "id": 3855785503, "lat": 30.275672, "lon": -97.788685}, {"type": "node", "id": 3855785508, "lat": 30.275683, "lon": -97.788705}, {"type": "node", "id": 3855785510, "lat": 30.275686, "lon": -97.788454}, {"type": "node", "id": 3855785517, "lat": 30.275699, "lon": -97.788445}, {"type": "node", "id": 3855785526, "lat": 30.275716, "lon": -97.788508}, {"type": "node", "id": 3855785534, "lat": 30.275729, "lon": -97.788499}, {"type": "node", "id": 3855785569, "lat": 30.275785, "lon": -97.788603}, {"type": "node", "id": 3860017489, "lat": 30.272723, "lon": -97.675363}, {"type": "node", "id": 3860017561, "lat": 30.272821, "lon": -97.675298}, {"type": "node", "id": 3860017596, "lat": 30.272851, "lon": -97.67562}, {"type": "node", "id": 3860017705, "lat": 30.272974, "lon": -97.675198}, {"type": "node", "id": 3860017817, "lat": 30.273102, "lon": -97.675455}, {"type": "node", "id": 3864060793, "lat": 30.4141057, "lon": -97.696135}, {"type": "node", "id": 3864060799, "lat": 30.4141607, "lon": -97.69634}, {"type": "node", "id": 3864060815, "lat": 30.4143007, "lon": -97.696029}, {"type": "node", "id": 3864060816, "lat": 30.4143097, "lon": -97.696061}, {"type": "node", "id": 3864060817, "lat": 30.4143437, "lon": -97.696013}, {"type": "node", "id": 3864060818, "lat": 30.4143537, "lon": -97.696049}, {"type": "node", "id": 3864060819, "lat": 30.4144687, "lon": -97.696007}, {"type": "node", "id": 3864060825, "lat": 30.4145227, "lon": -97.696204}, {"type": "node", "id": 3864060826, "lat": 30.4145237, "lon": -97.696208}, {"type": "node", "id": 3865974382, "lat": 30.290978, "lon": -97.799835}, {"type": "node", "id": 3865974383, "lat": 30.29099, "lon": -97.799994}, {"type": "node", "id": 3865974385, "lat": 30.290994, "lon": -97.799752}, {"type": "node", "id": 3865974388, "lat": 30.291003, "lon": -97.799928}, {"type": "node", "id": 3865974399, "lat": 30.291048, "lon": -97.799853}, {"type": "node", "id": 3865974400, "lat": 30.29106, "lon": -97.800029}, {"type": "node", "id": 3865974401, "lat": 30.291064, "lon": -97.800012}, {"type": "node", "id": 3865974404, "lat": 30.291071, "lon": -97.799945}, {"type": "node", "id": 3865974407, "lat": 30.291086, "lon": -97.799862}, {"type": "node", "id": 3865974418, "lat": 30.291152, "lon": -97.799816}, {"type": "node", "id": 3865974419, "lat": 30.291155, "lon": -97.800053}, {"type": "node", "id": 3865974420, "lat": 30.291156, "lon": -97.799793}, {"type": "node", "id": 3865974422, "lat": 30.291178, "lon": -97.799884}, {"type": "node", "id": 3865974423, "lat": 30.291186, "lon": -97.799886}, {"type": "node", "id": 3865974424, "lat": 30.291189, "lon": -97.799825}, {"type": "node", "id": 5311576076, "lat": 30.259774, "lon": -97.7001581}, {"type": "node", "id": 9095873767, "lat": 30.232551, "lon": -97.7542933, "tags": {"amenity": "police", "email": "campus.safety@stedwards.edu", "fixme": "Out Dated Satellite Imagery.", "name": "St. Edward's Police Dpt.", "opening_hours": "24/7", "opening_hours:covid19": "restricted", "operator": "St. Edward's University"}}, {"type": "node", "id": 9131045433, "lat": 30.2677503, "lon": -97.7350036}, {"type": "node", "id": 9131045438, "lat": 30.2672506, "lon": -97.7349556}, {"type": "way", "id": 31963393, "nodes": [358057300, 358057302, 358057304, 358057306, 358057300], "tags": {"addr:housenumber": "2201", "addr:postcode": "78712", "addr:state": "TX", "addr:street": "Robert Dedman Drive", "amenity": "police", "building": "university", "ele": "179", "name": "University Police Building", "ref": "UPB"}}, {"type": "way", "id": 236594057, "nodes": [2446138685, 2446138686, 2446138687, 2446138688, 2446138685], "tags": {"addr:housenumber": "1500", "addr:postcode": "78701", "addr:street": "Congress Avenue", "amenity": "police", "building": "yes", "name": "Texas Department of Poblic Safety", "operator": "Texas DPS"}}, {"type": "way", "id": 328649852, "nodes": [3354671629, 9131045438, 3354671618, 3354671620, 3354671617, 3354671619, 3354671623, 3354671622, 3354671650, 3354671647, 3354671652, 9131045433, 3354671644, 3354671642, 3354671649, 3354671645, 3354671637, 3354671638, 3354671627, 3354671624, 3354671629], "tags": {"addr:city": "Austin", "addr:housenumber": "715", "addr:postcode": "78701", "addr:state": "TX", "addr:street": "East 8th Street", "amenity": "police", "building": "yes", "email": "police3@austintexas.gov", "name": "Austin Police HQ", "opening_hours": "Mo-Fr 09:00-17:00", "opening_hours:covid19": "closed", "operator": "City of Austin Police", "source:geometry": "Bing", "wikidata": "Q4823239", "wikipedia": "en:Austin Police Department"}}, {"type": "way", "id": 328649864, "nodes": [3354671663, 3354671660, 3354671646, 3354671653, 3354671663], "tags": {"amenity": "police", "building": "yes", "name": "Austin Police", "source:geometry": "Bing"}}, {"type": "way", "id": 379206169, "nodes": [5311576076, 3825349746, 3825349751, 3825349545, 3825349330, 3825349341, 3825349322, 3825349281, 3825349272, 3825349266, 3825349263, 3825349261, 3825349242, 3825349241, 3825349244, 3825348872, 3825349166, 3825349498, 3825349484, 5311576076], "tags": {"addr:housenumber": "816", "addr:street": "Springdale Road", "amenity": "police", "building": "yes", "coa:place_id": "252860", "height": "15.47", "name": "Austin Police Department"}}, {"type": "way", "id": 382383215, "nodes": [3855785569, 3855785534, 3855785526, 3855785510, 3855785517, 3855785492, 3855785451, 3855785472, 3855785471, 3855785487, 3855785418, 3855785455, 3855785508, 3855785503, 3855785569], "tags": {"addr:city": "Austin", "addr:housenumber": "403", "addr:postcode": "78746", "addr:state": "TX", "addr:street": "Nixon Drive", "amenity": "police", "building": "yes", "height": "6.7", "name": "Rollingwood Police Department"}}, {"type": "way", "id": 382783256, "nodes": [3860017561, 3860017489, 3860017596, 3860017817, 3860017705, 3860017561], "tags": {"addr:city": "Austin", "addr:housenumber": "5817", "addr:postcode": "78721", "addr:state": "TX", "addr:street": "Wilcab Road", "amenity": "police", "building": "yes", "height": "6.6", "name": "Austin Police Association"}}, {"type": "way", "id": 383192668, "nodes": [3864060825, 3864060819, 3864060818, 3864060817, 3864060815, 3864060816, 3864060793, 3864060799, 3864060826, 3864060825], "tags": {"addr:city": "Austin", "addr:housenumber": "12425", "addr:postcode": "78758", "addr:state": "TX", "addr:street": "Lamplight Village Avenue", "amenity": "police", "building": "yes", "height": "12.7", "name": "Austin Police Department: Jaime Padron Substation", "phone": "+1-512-974-2000", "website": "austintexas.gov"}}, {"type": "way", "id": 383350363, "nodes": [3865974399, 3865974407, 3865974404, 3865974388, 3865974383, 3865974401, 3865974400, 3865974419, 3865974423, 3865974422, 3865974424, 3865974418, 3865974420, 3865974385, 3865974382, 3865974399], "tags": {"addr:city": "West Lake Hills", "addr:country": "US", "addr:housenumber": "911", "addr:postcode": "78746", "addr:state": "TX", "addr:street": "Westlake Drive", "amenity": "police", "building": "yes", "height": "9.4", "name": "Westlake Hills Police Department", "opening_hours": "24/7", "opening_hours:covid19": "restricted", "operator": "City of Westlake Hills", "phone": "+1-512-327-3628", "website": "https://www.westlakehills.org/97/Police"}}]}