{"version": 0.6, "generator": "Overpass API 0.7.57.2 48842a1b", "osm3s": {"timestamp_osm_base": "2022-05-31T18:07:59Z", "copyright": "The data included in this document is from www.openstreetmap.org. The data is made available under ODbL."}, "elements": [{"type": "node", "id": 354685562, "lat": 30.1741875, "lon": -97.8228982, "tags": {"amenity": "pharmacy", "brand": "Walgreens", "brand:wikidata": "Q1591889", "brand:wikipedia": "en:Walgreens", "healthcare": "pharmacy", "name": "Walgreens"}}, {"type": "node", "id": 437414175, "lat": 30.4245673, "lon": -97.7147663, "tags": {"amenity": "pharmacy", "brand": "Walgreens", "brand:wikidata": "Q1591889", "brand:wikipedia": "en:Walgreens", "dispensing": "yes", "healthcare": "pharmacy", "name": "Walgreens"}}, {"type": "node", "id": 530724690, "lat": 30.3344923, "lon": -97.7410624, "tags": {"addr:city": "Austin", "addr:housenumber": "5808", "addr:postcode": "78756", "addr:state": "TX", "addr:street": "Burnet Road", "amenity": "pharmacy", "brand": "H-E-B Pharmacy", "brand:wikidata": "Q830621", "brand:wikipedia": "en:H-E-B", "dispensing": "yes", "healthcare": "pharmacy", "name": "H-E-B Pharmacy", "opening_hours": "Su 10:00-17:00; Mo-Fr 08:00-20:00; Sa 09:00-18:00", "phone": "+1-512-454-6691", "short_name": "H-E-B"}}, {"type": "node", "id": 564545102, "lat": 30.3253668, "lon": -97.7403883, "tags": {"amenity": "pharmacy", "brand": "CVS Pharmacy", "brand:wikidata": "Q2078880", "brand:wikipedia": "en:CVS Pharmacy", "healthcare": "pharmacy", "name": "CVS Pharmacy", "short_name": "CVS"}}, {"type": "node", "id": 565737418, "lat": 30.1840324, "lon": -97.8499708}, {"type": "node", "id": 565737420, "lat": 30.1843662, "lon": -97.8497648}, {"type": "node", "id": 565737424, "lat": 30.1845369, "lon": -97.8501081}, {"type": "node", "id": 565737426, "lat": 30.1842327, "lon": -97.8503055}, {"type": "node", "id": 859656947, "lat": 30.4195195, "lon": -97.748198}, {"type": "node", "id": 859656950, "lat": 30.4195254, "lon": -97.7481557}, {"type": "node", "id": 859656951, "lat": 30.4195698, "lon": -97.748164}, {"type": "node", "id": 859656952, "lat": 30.4195831, "lon": -97.7480689}, {"type": "node", "id": 859656953, "lat": 30.4195406, "lon": -97.7480609}, {"type": "node", "id": 859656955, "lat": 30.4195859, "lon": -97.7477383}, {"type": "node", "id": 859656957, "lat": 30.4192823, "lon": -97.7477588}, {"type": "node", "id": 859656959, "lat": 30.4192285, "lon": -97.7481432}, {"type": "node", "id": 919327834, "lat": 30.2474893, "lon": -97.7701249, "tags": {"amenity": "pharmacy", "brand": "CVS Pharmacy", "brand:wikidata": "Q2078880", "brand:wikipedia": "en:CVS Pharmacy", "healthcare": "pharmacy", "name": "CVS Pharmacy", "short_name": "CVS"}}, {"type": "node", "id": 919340665, "lat": 30.2397, "lon": -97.7524166, "tags": {"amenity": "pharmacy", "brand": "CVS Pharmacy", "brand:wikidata": "Q2078880", "brand:wikipedia": "en:CVS Pharmacy", "dispensing": "yes", "healthcare": "pharmacy", "name": "CVS Pharmacy", "short_name": "CVS"}}, {"type": "node", "id": 1231748179, "lat": 30.393159, "lon": -97.7442148, "tags": {"amenity": "pharmacy", "healthcare": "pharmacy"}}, {"type": "node", "id": 1430644782, "lat": 30.4020038, "lon": -97.7477385, "tags": {"addr:city": "Austin", "addr:housenumber": "10900", "addr:postcode": "78759", "addr:state": "TX", "addr:street": "Research Blvd", "amenity": "pharmacy", "dispensing": "yes", "healthcare": "pharmacy", "name": "Randalls Pharmacy", "phone": "+1-512-338-2241", "website": "https://local.randalls.com/tx/austin-2490.html"}}, {"type": "node", "id": 1484010003, "lat": 30.3338841, "lon": -97.7394358, "tags": {"addr:city": "Austin", "addr:housenumber": "5819", "addr:postcode": "78756", "addr:state": "TX", "addr:street": "Burnet Road", "amenity": "pharmacy", "brand": "Walgreens", "brand:wikidata": "Q1591889", "brand:wikipedia": "en:Walgreens", "dispensing": "yes", "drive_through": "yes", "healthcare": "pharmacy", "name": "Walgreens", "opening_hours": "Su 11:00-16:00; Mo-Fr 09:00-13:30,14:00-21:00; Sa 10:00-13:30,14:00-18:00"}}, {"type": "node", "id": 1484100621, "lat": 30.3366404, "lon": -97.7203949, "tags": {"amenity": "pharmacy", "brand": "Walgreens", "brand:wikidata": "Q1591889", "brand:wikipedia": "en:Walgreens", "healthcare": "pharmacy", "name": "Walgreens"}}, {"type": "node", "id": 1484100635, "lat": 30.3089652, "lon": -97.741148, "tags": {"amenity": "pharmacy", "healthcare": "pharmacy", "name": "Peoples Pharmacy"}}, {"type": "node", "id": 1840613708, "lat": 30.4588409, "lon": -97.8232515, "tags": {"amenity": "pharmacy", "name": "Walgreens"}}, {"type": "node", "id": 2119487120, "lat": 30.3897041, "lon": -97.7398979, "tags": {"addr:housenumber": "250", "addr:postcode": "78759", "addr:street": "9901 N Capital Of texas", "amenity": "pharmacy", "name": "First Leap", "website": "First-leap.com"}}, {"type": "node", "id": 2337332910, "lat": 30.2803356, "lon": -97.806778}, {"type": "node", "id": 2337332911, "lat": 30.2803785, "lon": -97.8067057}, {"type": "node", "id": 2337332912, "lat": 30.2803532, "lon": -97.8066877}, {"type": "node", "id": 2337332913, "lat": 30.2804293, "lon": -97.8065747}, {"type": "node", "id": 2337332914, "lat": 30.2804605, "lon": -97.8066018}, {"type": "node", "id": 2337332915, "lat": 30.2805131, "lon": -97.806516}, {"type": "node", "id": 2337332916, "lat": 30.2804848, "lon": -97.8064889}, {"type": "node", "id": 2337332917, "lat": 30.2805268, "lon": -97.8064121}, {"type": "node", "id": 2337332918, "lat": 30.2800928, "lon": -97.8060462}, {"type": "node", "id": 2337332920, "lat": 30.2798753, "lon": -97.8063974}, {"type": "node", "id": 2434695899, "lat": 30.4192622, "lon": -97.747755}, {"type": "node", "id": 2434695948, "lat": 30.4193058, "lon": -97.7476854}, {"type": "node", "id": 2434696001, "lat": 30.419267, "lon": -97.7477206}, {"type": "node", "id": 2637711684, "lat": 30.2594408, "lon": -97.7118318, "tags": {"addr:city": "Austin", "addr:housenumber": "2701", "addr:postcode": "78702", "addr:state": "TX", "addr:street": "East 7th Street", "amenity": "pharmacy", "brand": "H-E-B Pharmacy", "brand:wikidata": "Q830621", "brand:wikipedia": "en:H-E-B", "healthcare": "pharmacy", "name": "H-E-B Pharmacy", "phone": "+1-512-478-8086", "short_name": "H-E-B"}}, {"type": "node", "id": 2637712276, "lat": 30.1884873, "lon": -97.7692368, "tags": {"addr:city": "Austin", "addr:housenumber": "6607", "addr:postcode": "78744", "addr:state": "TX", "addr:street": "I 35 Frontage Road", "amenity": "pharmacy", "brand": "H-E-B Pharmacy", "brand:wikidata": "Q830621", "brand:wikipedia": "en:H-E-B", "healthcare": "pharmacy", "name": "H-E-B Pharmacy", "phone": "+1-512-441-3692", "short_name": "H-E-B"}}, {"type": "node", "id": 2637713219, "lat": 30.3001369, "lon": -97.7194369, "tags": {"addr:city": "Austin", "addr:housenumber": "1000", "addr:postcode": "78751", "addr:state": "TX", "addr:street": "East 41st Street", "amenity": "pharmacy", "brand": "H-E-B", "brand:wikidata": "Q830621", "brand:wikipedia": "en:H-E-B", "dispensing": "yes", "drive_through": "no", "healthcare": "pharmacy", "name": "H-E-B Pharmacy", "opening_hours": "Mo-Fr 09:00-22:00; Sa-Su 08:00-19:00", "phone": "+1-512-459-8308"}}, {"type": "node", "id": 2637725562, "lat": 30.4344019, "lon": -97.7724148, "tags": {"addr:city": "Austin", "addr:housenumber": "12860", "addr:postcode": "78750", "addr:state": "TX", "addr:street": "Research Boulevard", "amenity": "pharmacy", "brand": "H-E-B", "brand:wikidata": "Q830621", "brand:wikipedia": "en:H-E-B", "healthcare": "pharmacy", "name": "H-E-B Pharmacy", "phone": "+1-512-506-9250"}}, {"type": "node", "id": 2637729195, "lat": 30.4049827, "lon": -97.6720293, "tags": {"addr:city": "Austin", "addr:housenumber": "500", "addr:postcode": "78753", "addr:state": "TX", "addr:street": "West Canyon Ridge Drive", "amenity": "pharmacy", "brand": "H-E-B", "brand:wikidata": "Q830621", "brand:wikipedia": "en:H-E-B", "dispensing": "yes", "healthcare": "pharmacy", "name": "H-E-B Pharmacy", "phone": "+1-512-973-8753"}}, {"type": "node", "id": 2637731348, "lat": 30.4427111, "lon": -97.6646942, "tags": {"addr:city": "Pflugerville", "addr:housenumber": "1434", "addr:postcode": "78660", "addr:state": "TX", "addr:street": "Wells Branch Parkway", "amenity": "pharmacy", "brand": "H-E-B Pharmacy", "brand:wikidata": "Q830621", "brand:wikipedia": "en:H-E-B", "dispensing": "yes", "healthcare": "pharmacy", "name": "H-E-B Pharmacy", "phone": "+1-512-251-5286", "short_name": "H-E-B"}}, {"type": "node", "id": 2637734282, "lat": 30.2391235, "lon": -97.755375, "tags": {"addr:city": "Austin", "addr:housenumber": "2400", "addr:postcode": "78704", "addr:state": "TX", "addr:street": "South Congress Avenue", "amenity": "pharmacy", "brand": "H-E-B", "brand:wikidata": "Q830621", "brand:wikipedia": "en:H-E-B", "dispensing": "yes", "healthcare": "pharmacy", "name": "H-E-B Pharmacy", "phone": "+1-512-442-1578"}}, {"type": "node", "id": 2639153809, "lat": 30.2026139, "lon": -97.8772018, "tags": {"addr:city": "Austin", "addr:housenumber": "5800", "addr:postcode": "78749", "addr:state": "TX", "addr:street": "West Slaughter Lane", "amenity": "pharmacy", "brand": "H-E-B Pharmacy", "brand:wikidata": "Q830621", "brand:wikipedia": "en:H-E-B", "healthcare": "pharmacy", "name": "H-E-B Pharmacy", "phone": "+1-512-301-9772", "short_name": "H-E-B"}}, {"type": "node", "id": 2639154504, "lat": 30.1753537, "lon": -97.8246195, "tags": {"addr:city": "Austin", "addr:housenumber": "2110", "addr:postcode": "78748", "addr:state": "TX", "addr:street": "West Slaughter Lane", "amenity": "pharmacy", "brand": "H-E-B", "brand:wikidata": "Q830621", "brand:wikipedia": "en:H-E-B", "healthcare": "pharmacy", "name": "H-E-B Pharmacy", "phone": "+1-512-282-0990"}}, {"type": "node", "id": 2639155236, "lat": 30.3122716, "lon": -97.66505, "tags": {"addr:city": "Austin", "addr:housenumber": "7112", "addr:postcode": "78723", "addr:state": "TX", "addr:street": "Ed Bluestein Boulevard", "amenity": "pharmacy", "brand": "H-E-B", "brand:wikidata": "Q830621", "brand:wikipedia": "en:H-E-B", "healthcare": "pharmacy", "name": "H-E-B Pharmacy", "phone": "+1-512-926-0586"}}, {"type": "node", "id": 2639157235, "lat": 30.364409, "lon": -97.6981724, "tags": {"addr:city": "Austin", "addr:housenumber": "9414", "addr:postcode": "78753", "addr:state": "TX", "addr:street": "North Lamar Boulevard", "amenity": "pharmacy", "brand": "H-E-B Pharmacy", "brand:wikidata": "Q830621", "brand:wikipedia": "en:H-E-B", "healthcare": "pharmacy", "name": "H-E-B Pharmacy", "phone": "+1-512-837-9580", "short_name": "H-E-B"}}, {"type": "node", "id": 2639158432, "lat": 30.3986607, "lon": -97.7479711, "tags": {"addr:city": "Austin", "addr:housenumber": "10710", "addr:postcode": "78759", "addr:state": "TX", "addr:street": "Research Boulevard", "amenity": "pharmacy", "brand": "H-E-B", "brand:wikidata": "Q830621", "brand:wikipedia": "en:H-E-B", "healthcare": "pharmacy", "name": "H-E-B Pharmacy", "phone": "+1-512-794-8227"}}, {"type": "node", "id": 2639162494, "lat": 30.4417604, "lon": -97.7422805, "tags": {"addr:city": "Austin", "addr:housenumber": "6001", "addr:postcode": "78727", "addr:state": "TX", "addr:street": "West Parmer Lane", "amenity": "pharmacy", "brand": "H-E-B", "brand:wikidata": "Q830621", "brand:wikipedia": "en:H-E-B", "dispensing": "yes", "healthcare": "pharmacy", "name": "H-E-B Pharmacy", "phone": "+1-512-249-8316"}}, {"type": "node", "id": 2639163544, "lat": 30.2160177, "lon": -97.831538, "tags": {"addr:city": "Austin", "addr:housenumber": "6900", "addr:postcode": "78745", "addr:state": "TX", "addr:street": "Brodie Lane", "amenity": "pharmacy", "brand": "H-E-B", "brand:wikidata": "Q830621", "brand:wikipedia": "en:H-E-B", "healthcare": "pharmacy", "name": "H-E-B Pharmacy", "phone": "+1-512-891-8906"}}, {"type": "node", "id": 2639164120, "lat": 30.403899, "lon": -97.8519975, "tags": {"addr:city": "Austin", "addr:housenumber": "7301", "addr:postcode": "78726", "addr:state": "TX", "addr:street": "Ranch Road 620", "amenity": "pharmacy", "brand": "H-E-B", "brand:wikidata": "Q830621", "brand:wikipedia": "en:H-E-B", "healthcare": "pharmacy", "name": "H-E-B Pharmacy", "phone": "+1-512-336-7706"}}, {"type": "node", "id": 2640309723, "lat": 30.2914032, "lon": -97.8250751, "tags": {"addr:city": "Westlake Hills", "addr:housenumber": "701", "addr:postcode": "78746", "addr:state": "TX", "addr:street": "Capital of Texas Highway", "amenity": "pharmacy", "brand": "H-E-B Pharmacy", "brand:wikidata": "Q830621", "brand:wikipedia": "en:H-E-B", "dispensing": "yes", "healthcare": "pharmacy", "name": "H-E-B Pharmacy", "opening_hours:covid19": "same", "operator": "HEB", "phone": "+1-512-329-5184", "short_name": "H-E-B"}}, {"type": "node", "id": 2644084556, "lat": 30.4533746, "lon": -97.8259343, "tags": {"addr:city": "Austin", "addr:housenumber": "11521", "addr:postcode": "78726", "addr:state": "TX", "addr:street": "Ranch Road 620", "amenity": "pharmacy", "brand": "H-E-B", "brand:wikidata": "Q830621", "brand:wikipedia": "en:H-E-B", "dispensing": "yes", "drive_through": "yes", "healthcare": "pharmacy", "name": "H-E-B Pharmacy", "phone": "+1-512-249-0577"}}, {"type": "node", "id": 2653323525, "lat": 30.448568, "lon": -97.7892868, "tags": {"addr:city": "Austin", "addr:housenumber": "13435", "addr:postcode": "78729", "addr:street": "N HWY 183", "amenity": "pharmacy", "brand": "Walgreens", "brand:wikidata": "Q1591889", "brand:wikipedia": "en:Walgreens", "healthcare": "pharmacy", "name": "Walgreens"}}, {"type": "node", "id": 2673754493, "lat": 30.2426252, "lon": -97.7280805, "tags": {"amenity": "pharmacy", "brand": "Walgreens", "brand:wikidata": "Q1591889", "brand:wikipedia": "en:Walgreens", "dispensing": "yes", "drive_through": "yes", "healthcare": "pharmacy", "name": "Walgreens", "opening_hours": "Mo-Fr 08:00-13:30,14:00-22:00; Sa 09:00-13:30,14:00-18:00; Su 10:00-13:30,14:00-18:00", "phone": "+1-512-326-5228", "website": "https://www.walgreens.com/locator/walgreens-1920+e+riverside+dr-austin-tx-78741/id=15672"}}, {"type": "node", "id": 2728724600, "lat": 30.1991724, "lon": -97.8642143, "tags": {"amenity": "pharmacy", "brand": "Walgreens", "brand:wikidata": "Q1591889", "brand:wikipedia": "en:Walgreens", "healthcare": "pharmacy", "name": "Walgreens"}}, {"type": "node", "id": 2734741586, "lat": 30.4340281, "lon": -97.7712134, "tags": {"amenity": "pharmacy", "healthcare": "pharmacy", "name": "Liberty Pharmacy"}}, {"type": "node", "id": 2743753190, "lat": 30.3722365, "lon": -97.7576523}, {"type": "node", "id": 2743753192, "lat": 30.3723399, "lon": -97.7573926}, {"type": "node", "id": 2743753196, "lat": 30.3725635, "lon": -97.7578272}, {"type": "node", "id": 2743753198, "lat": 30.3726003, "lon": -97.7578159}, {"type": "node", "id": 2743753199, "lat": 30.3726935, "lon": -97.7575817}, {"type": "node", "id": 2868784015, "lat": 30.2380402, "lon": -97.789089, "tags": {"amenity": "pharmacy", "name": "People's Pharmacy"}}, {"type": "node", "id": 3027562110, "lat": 30.2193032, "lon": -97.8430005, "tags": {"amenity": "pharmacy", "brand": "Costco Pharmacy", "brand:wikidata": "Q715583", "brand:wikipedia": "en:Costco", "dispensing": "yes", "healthcare": "pharmacy", "name": "Costco Pharmacy"}}, {"type": "node", "id": 3089859229, "lat": 30.4177189, "lon": -97.7027376, "tags": {"addr:city": "Austin", "addr:housenumber": "12407", "addr:postcode": "78758", "addr:state": "TX", "addr:street": "North MoPac Expressway", "amenity": "pharmacy", "brand": "H-E-B Pharmacy", "brand:wikidata": "Q830621", "brand:wikipedia": "en:H-E-B", "dispensing": "yes", "healthcare": "pharmacy", "name": "H-E-B Pharmacy", "phone": "+1-512-339-6644", "short_name": "H-E-B"}}, {"type": "node", "id": 3097849668, "lat": 30.352091, "lon": -97.7551726, "tags": {"addr:city": "Austin", "addr:housenumber": "7015", "addr:postcode": "78731", "addr:state": "TX", "addr:street": "Village Center Drive", "amenity": "pharmacy", "brand": "H-E-B", "brand:wikidata": "Q830621", "brand:wikipedia": "en:H-E-B", "healthcare": "pharmacy", "name": "H-E-B Pharmacy", "opening_hours": "Mo-Fr 09:00-21:00; Sa 09:00-18:00; Su 10:00-17:00", "phone": "+1-512-502-8801"}}, {"type": "node", "id": 3098009907, "lat": 30.2366613, "lon": -97.7227631, "tags": {"addr:city": "Austin", "addr:housenumber": "2508", "addr:postcode": "78741", "addr:state": "TX", "addr:street": "East Riverside Drive", "amenity": "pharmacy", "brand": "H-E-B Pharmacy", "brand:wikidata": "Q830621", "brand:wikipedia": "en:H-E-B", "dispensing": "yes", "drive_through": "yes", "healthcare": "pharmacy", "name": "H-E-B Pharmacy", "opening_hours": "Mo-Fr 08:00-20:00; Sa 09:00-18:00; Su 10:00-17:00", "phone": "+1-512-448-3353", "short_name": "H-E-B"}}, {"type": "node", "id": 3107990441, "lat": 30.2142244, "lon": -97.8318647}, {"type": "node", "id": 3107990442, "lat": 30.2139805, "lon": -97.832049}, {"type": "node", "id": 3107990443, "lat": 30.2137677, "lon": -97.8316721}, {"type": "node", "id": 3107990444, "lat": 30.2140116, "lon": -97.8314877}, {"type": "node", "id": 3140490642, "lat": 30.3009965, "lon": -97.6980571, "tags": {"addr:city": "Austin", "addr:housenumber": "1801", "addr:postcode": "78723", "addr:state": "TX", "addr:street": "East 51st Street", "amenity": "pharmacy", "brand": "H-E-B Pharmacy", "brand:wikidata": "Q830621", "brand:wikipedia": "en:H-E-B", "dispensing": "yes", "drive_through": "yes", "healthcare": "pharmacy", "name": "H-E-B Pharmacy", "opening_hours": "Mo-Fr 08:00-20:00; Sa 09:00-18:00; Su 10:00-17:00", "phone": "+1-512-474-2662", "short_name": "H-E-B", "website": "https://www.heb.com/heb-store/US/tx/austin/mueller-h-e-b-639"}}, {"type": "node", "id": 3196524636, "lat": 30.3354395, "lon": -97.7582669, "tags": {"addr:city": "Austin", "addr:housenumber": "5311", "addr:postcode": "78731", "addr:state": "TX", "addr:street": "Balcones Drive", "amenity": "pharmacy", "healthcare": "pharmacy", "name": "Randalls Pharmacy", "phone": "+1-512-302-2504"}}, {"type": "node", "id": 3197123111, "lat": 30.1845604, "lon": -97.8475973, "tags": {"addr:city": "Austin", "addr:housenumber": "9911", "addr:postcode": "78748", "addr:state": "TX", "addr:street": "Brodie Lane", "amenity": "pharmacy", "healthcare": "pharmacy", "name": "Randalls Pharmacy", "phone": "+1-512-280-1201"}}, {"type": "node", "id": 3197135585, "lat": 30.371798, "lon": -97.7581427, "tags": {"addr:city": "Austin", "addr:housenumber": "8040", "addr:postcode": "78731", "addr:state": "TX", "addr:street": "Mesa Drive", "amenity": "pharmacy", "name": "Randalls Pharmacy", "phone": "+1-512-345-7238"}}, {"type": "node", "id": 3197620287, "lat": 30.3892248, "lon": -97.8839252, "tags": {"addr:city": "Austin", "addr:housenumber": "5145", "addr:postcode": "78732", "addr:state": "TX", "addr:street": "Ranch Road 620", "amenity": "pharmacy", "drive_through": "no", "healthcare": "pharmacy", "name": "Randalls Pharmacy", "operator": "Albertsons Companies LLC", "phone": "+1-512-266-1392"}}, {"type": "node", "id": 3197651937, "lat": 30.2294299, "lon": -97.7904375, "tags": {"addr:city": "Austin", "addr:housenumber": "2025", "addr:postcode": "78704", "addr:state": "TX", "addr:street": "West Ben White Boulevard", "amenity": "pharmacy", "name": "Randalls Pharmacy", "phone": "+1-512-441-7865"}}, {"type": "node", "id": 3825174349, "lat": 30.435096, "lon": -97.76917, "tags": {"addr:housenumber": "7410", "addr:street": "Mc Neil Drive", "amenity": "pharmacy", "brand": "Walgreens", "brand:wikidata": "Q1591889", "brand:wikipedia": "en:Walgreens", "coa:place_id": "91428", "dispensing": "yes", "healthcare": "pharmacy", "name": "Walgreens"}}, {"type": "node", "id": 3849353213, "lat": 30.33656, "lon": -97.738982, "tags": {"addr:city": "Austin", "addr:housenumber": "6111", "addr:postcode": "78757", "addr:state": "TX", "addr:street": "Burnet Road", "amenity": "pharmacy", "dispensing": "yes", "healthcare": "pharmacy", "name": "NuCara Pharmacy"}}, {"type": "node", "id": 3853721108, "lat": 30.4572535, "lon": -97.8228841, "tags": {"addr:housenumber": "11725", "addr:postcode": "78750", "addr:street": "Ranch Road 620", "amenity": "pharmacy", "brand": "CVS Pharmacy", "brand:wikidata": "Q2078880", "brand:wikipedia": "en:CVS Pharmacy", "healthcare": "pharmacy", "name": "CVS Pharmacy", "short_name": "CVS"}}, {"type": "node", "id": 3856665311, "lat": 30.207797, "lon": -97.782324}, {"type": "node", "id": 3856665323, "lat": 30.207813, "lon": -97.782396}, {"type": "node", "id": 3856665333, "lat": 30.207826, "lon": -97.782424}, {"type": "node", "id": 3856665334, "lat": 30.207827, "lon": -97.782387}, {"type": "node", "id": 3856665344, "lat": 30.207841, "lon": -97.782414}, {"type": "node", "id": 3856665359, "lat": 30.207856, "lon": -97.782489}, {"type": "node", "id": 3856665375, "lat": 30.207872, "lon": -97.782478}, {"type": "node", "id": 3856665380, "lat": 30.20788, "lon": -97.782538}, {"type": "node", "id": 3856665395, "lat": 30.207897, "lon": -97.782528}, {"type": "node", "id": 3856665416, "lat": 30.207918, "lon": -97.782572}, {"type": "node", "id": 3856665434, "lat": 30.207968, "lon": -97.782583}, {"type": "node", "id": 3856665448, "lat": 30.208, "lon": -97.782651}, {"type": "node", "id": 3856665467, "lat": 30.208033, "lon": -97.782538}, {"type": "node", "id": 3856665472, "lat": 30.208045, "lon": -97.782134}, {"type": "node", "id": 3856665477, "lat": 30.208056, "lon": -97.782158}, {"type": "node", "id": 3856665487, "lat": 30.208066, "lon": -97.782609}, {"type": "node", "id": 3856665529, "lat": 30.208139, "lon": -97.782073}, {"type": "node", "id": 3856665531, "lat": 30.208141, "lon": -97.782077}, {"type": "node", "id": 3856665616, "lat": 30.208286, "lon": -97.782377}, {"type": "node", "id": 3956853930, "lat": 30.2800157, "lon": -97.7590733, "tags": {"amenity": "pharmacy", "name": "Nau's Enfield Drug", "note": "it's a pharmacy that has burgers..."}}, {"type": "node", "id": 4398154587, "lat": 30.4782087, "lon": -97.8039006, "tags": {"addr:city": "Austin", "addr:housenumber": "14028", "addr:postcode": "78717", "addr:state": "TX", "addr:street": "Research Boulevard", "amenity": "pharmacy", "brand": "H-E-B Pharmacy", "brand:wikidata": "Q830621", "brand:wikipedia": "en:H-E-B", "dispensing": "yes", "drive_through": "yes", "healthcare": "pharmacy", "name": "H-E-B Pharmacy", "opening_hours": "Mo-Fr 08:00-20:00; Sa 09:00-18:00; Su 10:00-17:00", "phone": "+1-512-249-9886", "short_name": "H-E-B"}}, {"type": "node", "id": 5296606352, "lat": 30.304895, "lon": -97.9328222, "tags": {"addr:city": "Bee Cave", "addr:housenumber": "12400", "addr:postcode": "78738", "addr:state": "TX", "addr:street": "West Highway 71", "amenity": "pharmacy", "brand": "H-E-B", "brand:wikidata": "Q830621", "brand:wikipedia": "en:H-E-B", "healthcare": "pharmacy", "name": "H-E-B Pharmacy", "phone": "+1-512-263-0561"}}, {"type": "node", "id": 5521764641, "lat": 30.2757116, "lon": -97.7991975, "tags": {"addr:city": "West Lake Hills", "addr:housenumber": "3300", "addr:postcode": "78746", "addr:state": "TX", "addr:street": "Bee Caves Road", "amenity": "pharmacy", "name": "Randalls Pharmacy", "phone": "+1-512-329-7408"}}, {"type": "node", "id": 5771933657, "lat": 30.2460551, "lon": -97.7777916, "tags": {"amenity": "pharmacy", "brand": "Walgreens", "brand:wikidata": "Q1591889", "brand:wikipedia": "en:Walgreens", "dispensing": "yes", "healthcare": "pharmacy", "name": "Walgreens"}}, {"type": "node", "id": 6125582983, "lat": 30.2321877, "lon": -97.7910569, "tags": {"amenity": "pharmacy", "dispensing": "yes", "healthcare": "pharmacy", "name": "VMC Pharmacy"}}, {"type": "node", "id": 6268307596, "lat": 30.2036615, "lon": -97.8064855, "tags": {"amenity": "pharmacy", "brand": "CVS Pharmacy", "brand:wikidata": "Q2078880", "brand:wikipedia": "en:CVS Pharmacy", "dispensing": "yes", "healthcare": "pharmacy", "name": "CVS Pharmacy", "short_name": "CVS"}}, {"type": "node", "id": 6595032175, "lat": 30.356659, "lon": -97.7332938, "tags": {"amenity": "pharmacy", "brand": "Walgreens", "brand:wikidata": "Q1591889", "brand:wikipedia": "en:Walgreens", "dispensing": "yes", "healthcare": "pharmacy", "name": "Walgreens"}}, {"type": "node", "id": 6595101582, "lat": 30.311108, "lon": -97.732527, "tags": {"amenity": "pharmacy", "brand": "Walgreens", "brand:wikidata": "Q1591889", "brand:wikipedia": "en:Walgreens", "dispensing": "yes", "healthcare": "pharmacy", "name": "Walgreens"}}, {"type": "node", "id": 6786255042, "lat": 30.1677671, "lon": -97.7892801, "tags": {"amenity": "pharmacy", "brand": "Walgreens", "brand:wikidata": "Q1591889", "brand:wikipedia": "en:Walgreens", "dispensing": "yes", "healthcare": "pharmacy", "name": "Walgreens"}}, {"type": "node", "id": 6846242760, "lat": 30.1933346, "lon": -97.9228803}, {"type": "node", "id": 6846242761, "lat": 30.1932936, "lon": -97.9233448}, {"type": "node", "id": 6846242762, "lat": 30.1930991, "lon": -97.9229708}, {"type": "node", "id": 6846242763, "lat": 30.1932915, "lon": -97.9228434}, {"type": "node", "id": 6880277489, "lat": 30.312584, "lon": -97.707217, "tags": {"amenity": "pharmacy", "brand": "Walgreens", "brand:wikidata": "Q1591889", "brand:wikipedia": "en:Walgreens", "dispensing": "yes", "drive_through": "yes", "healthcare": "pharmacy", "name": "Walgreens"}}, {"type": "node", "id": 6880419272, "lat": 30.3591951, "lon": -97.7358348, "tags": {"amenity": "pharmacy", "brand": "CVS Pharmacy", "brand:wikidata": "Q2078880", "brand:wikipedia": "en:CVS Pharmacy", "dispensing": "yes", "drive_through": "yes", "healthcare": "pharmacy", "name": "CVS Pharmacy", "short_name": "CVS"}}, {"type": "node", "id": 6886574144, "lat": 30.192401, "lon": -97.7780409, "tags": {"amenity": "pharmacy", "dispensing": "yes", "healthcare": "pharmacy"}}, {"type": "node", "id": 6894545165, "lat": 30.3925779, "lon": -97.7071811, "tags": {"amenity": "pharmacy", "brand": "Walgreens", "brand:wikidata": "Q1591889", "brand:wikipedia": "en:Walgreens", "dispensing": "yes", "drive_through": "yes", "healthcare": "pharmacy", "name": "Walgreens", "opening_hours": "Mo-Fr 09:00-21:00; Sa 09:00-18:00; Su 10:00-18:00", "phone": "+1-512-837-0819", "wheelchair": "yes"}}, {"type": "node", "id": 6907460411, "lat": 30.4021438, "lon": -97.8537477, "tags": {"amenity": "pharmacy", "brand": "Walgreens", "brand:wikidata": "Q1591889", "brand:wikipedia": "en:Walgreens", "dispensing": "yes", "healthcare": "pharmacy", "name": "Walgreens"}}, {"type": "node", "id": 6907460412, "lat": 30.4049256, "lon": -97.8546149, "tags": {"amenity": "pharmacy", "brand": "CVS Pharmacy", "brand:wikidata": "Q2078880", "brand:wikipedia": "en:CVS Pharmacy", "dispensing": "yes", "healthcare": "pharmacy", "name": "CVS Pharmacy", "short_name": "CVS"}}, {"type": "node", "id": 6910526992, "lat": 30.4977345, "lon": -97.7743797, "tags": {"addr:city": "Austin", "addr:housenumber": "10550", "addr:postcode": "78717", "addr:state": "TX", "addr:street": "West Parmer Lane", "amenity": "pharmacy", "brand": "CVS Pharmacy", "brand:wikidata": "Q2078880", "brand:wikipedia": "en:CVS Pharmacy", "dispensing": "yes", "drive_through": "yes", "healthcare": "pharmacy", "name": "CVS Pharmacy", "opening_hours": "Mo-Fr 08:00-21:00; Sa 09:00-18:00; Su 10:00-18:00", "short_name": "CVS", "website": "https://www.cvs.com/store-locator/cvs-pharmacy-address/10550+W+Parmer+Ln+Corner+Of+Avery+Ranch+Blvd-Austin-TX-78717/storeid=526"}}, {"type": "node", "id": 6910526993, "lat": 30.4990147, "lon": -97.7748146, "tags": {"addr:city": "Austin", "addr:housenumber": "10600", "addr:postcode": "78717", "addr:state": "TX", "addr:street": "West Parmer Lane", "amenity": "pharmacy", "brand": "Walgreens", "brand:wikidata": "Q1591889", "brand:wikipedia": "en:Walgreens", "dispensing": "yes", "drive_through": "yes", "healthcare": "pharmacy", "name": "Walgreens", "opening_hours": "Mo-Fr 09:00-13:30, 14:00-21:00; Sa 09:00-13:30, 14:00-18:00; Su 10:00-13:30, 14:00-18:00", "phone": "+1-512-238-7124", "website": "https://www.walgreens.com/locator/walgreens-10600+w+parmer+ln-austin-tx-78717/id=7673"}}, {"type": "node", "id": 6978683110, "lat": 30.4329637, "lon": -97.7716311, "tags": {"amenity": "pharmacy", "dispensing": "yes", "drive_through": "no", "healthcare": "pharmacy", "name": "Liberty Pharmacy"}}, {"type": "node", "id": 7437958604, "lat": 30.1691838, "lon": -97.7871308, "tags": {"addr:city": "Austin", "addr:housenumber": "8801", "addr:postcode": "78745", "addr:state": "TX", "addr:street": "South Congress Avenue", "amenity": "pharmacy", "brand": "H-E-B", "brand:wikidata": "Q830621", "brand:wikipedia": "en:H-E-B", "dispensing": "yes", "healthcare": "pharmacy", "name": "H-E-B Pharmacy", "phone": "+1-512-292-8662"}}, {"type": "node", "id": 7944025749, "lat": 30.1933599, "lon": -97.9228502}, {"type": "node", "id": 7944025750, "lat": 30.193399, "lon": -97.9228803}, {"type": "node", "id": 7944025751, "lat": 30.1933821, "lon": -97.922914}, {"type": "node", "id": 7944025752, "lat": 30.1935468, "lon": -97.9232365}, {"type": "node", "id": 7944025753, "lat": 30.1933623, "lon": -97.9233636}, {"type": "node", "id": 7944025754, "lat": 30.193357, "lon": -97.9233931}, {"type": "node", "id": 7944025755, "lat": 30.1932871, "lon": -97.9233689}, {"type": "node", "id": 8165488257, "lat": 30.4392393, "lon": -97.6961157, "tags": {"amenity": "pharmacy", "brand": "Walgreens", "brand:wikidata": "Q1591889", "brand:wikipedia": "en:Walgreens", "dispensing": "yes", "drive_through": "yes", "healthcare": "pharmacy", "name": "Walgreens"}}, {"type": "node", "id": 8281696210, "lat": 30.382813, "lon": -97.6867294, "tags": {"addr:city": "Austin", "addr:housenumber": "11300", "addr:postcode": "78758", "addr:state": "TX", "addr:street": "North Lamar Boulevard", "amenity": "pharmacy", "brand": "CVS Pharmacy", "brand:wikidata": "Q2078880", "brand:wikipedia": "en:CVS Pharmacy", "dispensing": "yes", "drive_through": "yes", "healthcare": "pharmacy", "name": "CVS Pharmacy", "opening_hours": "Mo-Fr 08:00-20:00; Sa 09:00-18:00; Su 10:00-18:00", "phone": "+1-512-835-6751", "short_name": "CVS", "website": "https://www.cvs.com/store-locator/cvs-pharmacy-address/11300+N+Lamar+Blvd-Austin-TX-78753/storeid=7442", "wheelchair": "yes"}}, {"type": "node", "id": 8281757910, "lat": 30.4128158, "lon": -97.6912729, "tags": {"amenity": "pharmacy", "brand": "CVS Pharmacy", "brand:wikidata": "Q2078880", "brand:wikipedia": "en:CVS Pharmacy", "dispensing": "yes", "healthcare": "pharmacy", "name": "CVS Pharmacy", "short_name": "CVS"}}, {"type": "node", "id": 8281757911, "lat": 30.4146649, "lon": -97.69037, "tags": {"amenity": "pharmacy", "brand": "Walgreens", "brand:wikidata": "Q1591889", "brand:wikipedia": "en:Walgreens", "dispensing": "yes", "healthcare": "pharmacy", "name": "Walgreens"}}, {"type": "node", "id": 8281758042, "lat": 30.3617288, "lon": -97.6970067, "tags": {"addr:city": "Austin", "addr:housenumber": "9307", "addr:postcode": "78753", "addr:state": "TX", "addr:street": "North Lamar Boulevard", "amenity": "pharmacy", "brand": "Walgreens", "brand:wikidata": "Q1591889", "brand:wikipedia": "en:Walgreens", "healthcare": "pharmacy", "name": "Walgreens"}}, {"type": "node", "id": 8282165283, "lat": 30.4141983, "lon": -97.6760158, "tags": {"amenity": "pharmacy", "brand": "Walmart", "brand:wikidata": "Q483551", "brand:wikipedia": "en:Walmart", "dispensing": "yes", "healthcare": "pharmacy", "name": "Walmart Pharmacy"}}, {"type": "node", "id": 8282182903, "lat": 30.3857953, "lon": -97.6483115, "tags": {"addr:city": "Austin", "addr:housenumber": "1701", "addr:postcode": "78754", "addr:state": "TX", "addr:street": "East Parmer Lane", "amenity": "pharmacy", "brand": "CVS Pharmacy", "brand:wikidata": "Q2078880", "brand:wikipedia": "en:CVS Pharmacy", "dispensing": "yes", "healthcare": "pharmacy", "name": "CVS Pharmacy", "short_name": "CVS"}}, {"type": "node", "id": 8282183105, "lat": 30.4011861, "lon": -97.6572898, "tags": {"addr:city": "Austin", "addr:housenumber": "12601", "addr:postcode": "78753", "addr:state": "TX", "addr:street": "Tech Ridge Boulevard", "amenity": "pharmacy", "brand": "Walgreens", "brand:wikidata": "Q1591889", "brand:wikipedia": "en:Walgreens", "dispensing": "yes", "healthcare": "pharmacy", "name": "Walgreens"}}, {"type": "node", "id": 8336743232, "lat": 30.3811178, "lon": -97.6863815, "tags": {"addr:city": "Austin", "addr:housenumber": "11207", "addr:postcode": "78753", "addr:state": "TX", "addr:street": "North Lamar Boulevard", "addr:unit": "A", "amenity": "pharmacy", "dispensing": "yes", "drive_through": "yes", "fax": "+1-512-977-8846", "healthcare": "pharmacy", "name": "Vina Pharmacy", "opening_hours": "Mo-Fr 09:00-17:00; PH off", "phone": "+1-512-977-8844", "website": "https://www.medicineshoptx.com/"}}, {"type": "node", "id": 8530065387, "lat": 30.4670385, "lon": -97.7978431, "tags": {"addr:city": "Austin", "addr:housenumber": "13860", "addr:postcode": "78750", "addr:state": "TX", "addr:street": "US 183 N", "addr:unit": "B", "amenity": "pharmacy", "building": "yes", "dispensing": "yes", "drive_through": "no", "email": "pwcnorth@peoplesrx.com", "healthcare": "pharmacy", "name": "People's Rx", "opening_hours": "Mo-Fr 09:00-18:00", "phone": "+1-512-219-8600", "website": "https://peoplesrx.com/"}}, {"type": "node", "id": 8608063461, "lat": 30.3842471, "lon": -97.6926623, "tags": {"addr:city": "Austin", "addr:housenumber": "1139", "addr:postcode": "78758", "addr:state": "TX", "addr:street": "West Braker Lane", "addr:unit": "102", "amenity": "pharmacy", "dispensing": "yes", "drive_through": "no", "healthcare": "pharmacy", "name": "Auro Pharmacy", "opening_hours": "Mo-Fr 08:00-19:00; Sa-Su 09:00-14:00", "phone": "+1-512-206-3150", "website": "https://aurorx.com/"}}, {"type": "node", "id": 8947061194, "lat": 30.2329525, "lon": -97.7914698, "tags": {"amenity": "pharmacy", "brand": "CVS Pharmacy", "brand:wikidata": "Q2078880", "brand:wikipedia": "en:CVS Pharmacy", "name": "CVS Pharmacy"}}, {"type": "node", "id": 8947076987, "lat": 30.2835484, "lon": -97.7416015, "tags": {"amenity": "pharmacy", "brand": "CVS Pharmacy", "brand:wikidata": "Q2078880", "brand:wikipedia": "en:CVS Pharmacy", "healthcare": "pharmacy", "name": "CVS Pharmacy", "short_name": "CVS"}}, {"type": "node", "id": 8947079258, "lat": 30.1626283, "lon": -97.7937692, "tags": {"amenity": "pharmacy", "brand": "CVS Pharmacy", "brand:wikidata": "Q2078880", "brand:wikipedia": "en:CVS Pharmacy", "name": "CVS Pharmacy"}}, {"type": "node", "id": 8947129818, "lat": 30.2337914, "lon": -97.8287143, "tags": {"amenity": "pharmacy", "brand": "CVS Pharmacy", "brand:wikidata": "Q2078880", "brand:wikipedia": "en:CVS Pharmacy", "name": "CVS Pharmacy"}}, {"type": "node", "id": 9234375071, "lat": 30.2268741, "lon": -97.8880649, "tags": {"addr:city": "Austin", "addr:housenumber": "7901", "addr:postcode": "78736", "addr:state": "TX", "addr:street": "West US Highway 290", "amenity": "pharmacy", "brand": "H-E-B Pharmacy", "brand:wikidata": "Q830621", "brand:wikipedia": "en:H-E-B", "dispensing": "yes", "drive_through": "yes", "healthcare": "pharmacy", "name": "H-E-B Pharmacy", "phone": "+1-512-288-5713", "short_name": "H-E-B"}}, {"type": "node", "id": 9384100900, "lat": 30.2815094, "lon": -97.7749533, "tags": {"addr:city": "Austin", "addr:housenumber": "2610", "addr:postcode": "78703", "addr:state": "TX", "addr:street": "Lake Austin Boulevard", "amenity": "pharmacy", "brand": "CVS Pharmacy", "brand:wikidata": "Q2078880", "brand:wikipedia": "en:CVS Pharmacy", "healthcare": "pharmacy", "name": "CVS Pharmacy", "short_name": "CVS", "source": "City of Austin"}}, {"type": "way", "id": 44538252, "nodes": [565737418, 565737420, 565737424, 565737426, 565737418], "tags": {"addr:housenumber": "3500", "addr:postcode": "78749", "addr:street": "West Slaughter Lane", "amenity": "pharmacy", "brand": "CVS Pharmacy", "brand:wikidata": "Q2078880", "brand:wikipedia": "en:CVS Pharmacy", "building": "yes", "healthcare": "pharmacy", "name": "CVS Pharmacy", "short_name": "CVS"}}, {"type": "way", "id": 72378677, "nodes": [859656947, 859656950, 859656951, 859656952, 859656953, 859656955, 2434695948, 2434696001, 2434695899, 859656957, 859656959, 859656947], "tags": {"addr:housenumber": "11724", "addr:postcode": "78759", "addr:street": "Research Boulevard", "amenity": "pharmacy", "brand": "Walgreens", "brand:wikidata": "Q1591889", "brand:wikipedia": "en:Walgreens", "building": "retail", "dispensing": "yes", "healthcare": "pharmacy", "name": "Walgreens"}}, {"type": "way", "id": 224889804, "nodes": [2337332910, 2337332911, 2337332912, 2337332913, 2337332914, 2337332915, 2337332916, 2337332917, 2337332918, 2337332920, 2337332910], "tags": {"addr:city": "Austin", "addr:housenumber": "3700", "addr:postcode": "78746", "addr:street": "Bee Caves Road", "amenity": "pharmacy", "brand": "Walgreens", "brand:wikidata": "Q1591889", "brand:wikipedia": "en:Walgreens", "building": "yes", "dispensing": "yes", "drive_through": "yes", "healthcare": "pharmacy", "name": "Walgreens", "opening_hours": "08:00-22:00", "opening_hours:covid19": "same", "operator": "Walgreens, Inc.", "payment:cash": "yes", "payment:credit_cards": "yes", "payment:debit_cards": "yes", "payment:mobilepay": "yes"}}, {"type": "way", "id": 269092879, "nodes": [2743753198, 2743753199, 2743753192, 2743753190, 2743753196, 2743753198], "tags": {"amenity": "pharmacy", "building": "yes", "name": "Walgreens"}}, {"type": "way", "id": 306031160, "nodes": [3107990441, 3107990442, 3107990443, 3107990444, 3107990441], "tags": {"amenity": "pharmacy", "brand": "Walgreens", "brand:wikidata": "Q1591889", "brand:wikipedia": "en:Walgreens", "building": "commercial", "healthcare": "pharmacy", "name": "Walgreens"}}, {"type": "way", "id": 382467242, "nodes": [3856665531, 3856665529, 3856665472, 3856665477, 3856665311, 3856665334, 3856665323, 3856665333, 3856665344, 3856665375, 3856665359, 3856665380, 3856665395, 3856665416, 3856665434, 3856665448, 3856665487, 3856665467, 3856665616, 3856665531], "tags": {"amenity": "pharmacy", "brand": "Walgreens", "brand:wikidata": "Q1591889", "brand:wikipedia": "en:Walgreens", "building": "yes", "healthcare": "pharmacy", "height": "8.9", "name": "Walgreens"}}, {"type": "way", "id": 730966489, "nodes": [6846242760, 7944025749, 7944025750, 7944025751, 7944025752, 7944025753, 7944025754, 7944025755, 6846242761, 6846242762, 6846242763, 6846242760], "tags": {"addr:city": "Austin", "addr:housenumber": "8200", "addr:postcode": "78739", "addr:state": "TX", "addr:street": "State Highway 45", "amenity": "pharmacy", "brand": "CVS Pharmacy", "brand:wikidata": "Q2078880", "brand:wikipedia": "en:CVS Pharmacy", "building": "yes", "dispensing": "yes", "healthcare": "pharmacy", "name": "CVS Pharmacy", "short_name": "CVS"}}]}